0 FENGYUN 1C DEB
1 33719U 99025DHG 13282.16974830  .00001348  00000-0  76312-3 0  4243
2 33719 098.9654 263.6397 0039238 118.4355 298.6508 14.11427439293945
0 FENGYUN 1C DEB
1 33719U 99025DHG 13288.42691543  .00002040  00000-0  11419-2 0  4263
2 33719 098.9661 269.8889 0039474 101.2969 051.8320 14.11446095294828
0 FENGYUN 1C DEB
1 33719U 99025DHG 13293.80714505  .00001936  00000-0  10849-2 0  4275
2 33719 098.9675 275.2628 0039602 086.4371 029.7367 14.11462253295582
0 FENGYUN 1C DEB
1 33719U 99025DHG 13295.91719310  .00002036  00000-0  11390-2 0  4283
2 33719 098.9677 277.3712 0039853 080.5964 311.3567 14.11468834295888
